[{"OBJECT_NAME":"CENTISPACE-1 S7","OBJECT_ID":"2025-007B","EPOCH":"2026-03-09T21:41:40.317504","MEAN_MOTION":13.83163062,"ECCENTRICITY":0.00097398,"INCLINATION":54.9754,"RA_OF_ASC_NODE":279.2765,"ARG_OF_PERICENTER":301.0996,"MEAN_ANOMALY":58.9005,"EPHEMERIS_TYPE":0,"CLASSIFICATION_TYPE":"U","NORAD_CAT_ID":62576,"ELEMENT_SET_NO":999,"REV_AT_EPOCH":6100,"BSTAR":0.00010048958,"MEAN_MOTION_DOT":-3.1e-7,"MEAN_MOTION_DDOT":0},{"OBJECT_NAME":"VANGUARD 2","OBJECT_ID":"1959-001A","EPOCH":"2026-03-09T19:18:25.550496","MEAN_MOTION":11.90268048,"ECCENTRICITY":0.14456611,"INCLINATION":32.8708,"RA_OF_ASC_NODE":101.2249,"ARG_OF_PERICENTER":211.3482,"MEAN_ANOMALY":139.2428,"EPHEMERIS_TYPE":0,"CLASSIFICATION_TYPE":"U","NORAD_CAT_ID":11,"ELEMENT_SET_NO":999,"REV_AT_EPOCH":52362,"BSTAR":0.00053091218,"MEAN_MOTION_DOT":1.038e-5,"MEAN_MOTION_DDOT":0}]
